COSMOS 2058             
1 20465U 90010A   26075.99717432  .00003490  00000+0  20503-3 0  9997
2 20465  82.4667  40.2265 0008329 319.4031  40.6577 15.11388647943340
SL-14 R/B               
1 20466U 90010B   26076.03855971  .00000414  00000+0  47292-4 0  9993
2 20466  82.4987 260.4835 0018324 276.2285  83.6842 14.83575507929574
SL-14 R/B               
1 20511U 90018B   26076.13097156  .00000449  00000+0  53337-4 0  9991
2 20511  82.5216 216.1345 0017549  69.5819 290.7278 14.82152975923688
HST                     
1 20580U 90037B   26076.05470114  .00006491  00000+0  21207-3 0  9991
2 20580  28.4724 349.7537 0001684 201.5837 158.4688 15.29603902774440
SL-16 R/B               
1 20625U 90046B   26076.26122165  .00000045  00000+0  47714-4 0  9995
2 20625  70.9973 282.0121 0016160 289.5270  70.4107 14.15011233849466
COSMOS 2084             
1 20663U 90055A   26076.02743718  .00001858  00000+0  14159-3 0  9993
2 20663  62.7909 310.5517 0015893 192.0451 168.0271 15.05692999937427
SL-6 R/B(2)             
1 20666U 90055D   26076.15313694  .00001799  00000+0  14460-3 0  9995
2 20666  62.7822 228.4681 0025997 348.8451  11.2068 15.03632011939310
SL-8 R/B                
1 20775U 90078B   26076.16806457  .00011437  00000+0  33737-3 0  9994
2 20775  82.9000 244.5828 0360580 348.8252  10.5102 14.89314803810413
SL-8 R/B                
1 21088U 91006B   26076.17910936  .00000075  00000+0  59995-4 0  9994
2 21088  82.9460 164.4783 0022629  17.9217  46.0235 13.77495265765109
OKEAN-3                 
1 21397U 91039A   26076.19285642  .00002289  00000+0  15976-3 0  9993
2 21397  82.5199 329.5757 0013201 309.2448  50.7606 15.04860503866166
COSMOS 2151             
1 21422U 91042A   26076.28748845  .00002015  00000+0  15908-3 0  9997
2 21422  82.4930  76.3446 0013513  40.3969 319.8256 15.00136606864339
SL-14 R/B               
1 21423U 91042B   26076.11803583  .00000450  00000+0  53927-4 0  9996
2 21423  82.4937 213.2168 0016239 212.5659 147.4555 14.81837504854178
